CCSDS_OMM_VERS = 2.0
CREATION_DATE  = 
ORIGINATOR     = 

OBJECT_NAME    = SL-16 R/B
OBJECT_ID      = 1998-043G
CENTER_NAME    = EARTH
REF_FRAME      = TEME
TIME_SYSTEM    = UTC
MEAN_ELEMENT_THEORY = SGP/SGP4

EPOCH          = 2026-02-27T20:07:31.515744
MEAN_MOTION    = 14.26047176
ECCENTRICITY   = .00106626
INCLINATION    = 98.8237
RA_OF_ASC_NODE = 12.1333
ARG_OF_PERICENTER = 47.3255
MEAN_ANOMALY   = 312.8822

EPHEMERIS_TYPE = 0
CLASSIFICATION_TYPE = U
NORAD_CAT_ID   = 25400
ELEMENT_SET_NO = 999
REV_AT_EPOCH   = 43758
BSTAR          = .46148208E-4
MEAN_MOTION_DOT = .65E-6
MEAN_MOTION_DDOT = 0

CCSDS_OMM_VERS = 2.0
CREATION_DATE  = 
ORIGINATOR     = 

OBJECT_NAME    = SL-16 R/B
OBJECT_ID      = 1998-045B
CENTER_NAME    = EARTH
REF_FRAME      = TEME
TIME_SYSTEM    = UTC
MEAN_ELEMENT_THEORY = SGP/SGP4

EPOCH          = 2026-02-28T02:36:00.663264
MEAN_MOTION    = 14.16190478
ECCENTRICITY   = .000621
INCLINATION    = 71.0109
RA_OF_ASC_NODE = 201.7215
ARG_OF_PERICENTER = 23.0622
MEAN_ANOMALY   = 337.0779

EPHEMERIS_TYPE = 0
CLASSIFICATION_TYPE = U
NORAD_CAT_ID   = 25407
ELEMENT_SET_NO = 999
REV_AT_EPOCH   = 42574
BSTAR          = -.93441E-4
MEAN_MOTION_DOT = -.233E-5
MEAN_MOTION_DDOT = 0

CCSDS_OMM_VERS = 2.0
CREATION_DATE  = 
ORIGINATOR     = 

OBJECT_NAME    = ISS (ZARYA)
OBJECT_ID      = 1998-067A
CENTER_NAME    = EARTH
REF_FRAME      = TEME
TIME_SYSTEM    = UTC
MEAN_ELEMENT_THEORY = SGP/SGP4

EPOCH          = 2026-02-27T21:31:51.403008
MEAN_MOTION    = 15.48349372
ECCENTRICITY   = .0008322
INCLINATION    = 51.6325
RA_OF_ASC_NODE = 120.7666
ARG_OF_PERICENTER = 140.4026
MEAN_ANOMALY   = 219.7571

EPHEMERIS_TYPE = 0
CLASSIFICATION_TYPE = U
NORAD_CAT_ID   = 25544
ELEMENT_SET_NO = 999
REV_AT_EPOCH   = 55481
BSTAR          = .22726E-3
MEAN_MOTION_DOT = .1182E-3
MEAN_MOTION_DDOT = 0

CCSDS_OMM_VERS = 2.0
CREATION_DATE  = 
ORIGINATOR     = 

OBJECT_NAME    = CZ-4B R/B
OBJECT_ID      = 1999-025C
CENTER_NAME    = EARTH
REF_FRAME      = TEME
TIME_SYSTEM    = UTC
MEAN_ELEMENT_THEORY = SGP/SGP4

EPOCH          = 2026-02-28T03:25:09.250752
MEAN_MOTION    = 14.18263177
ECCENTRICITY   = .0037279
INCLINATION    = 98.6647
RA_OF_ASC_NODE = 103.6494
ARG_OF_PERICENTER = 14.1560
MEAN_ANOMALY   = 52.4140

EPHEMERIS_TYPE = 0
CLASSIFICATION_TYPE = U
NORAD_CAT_ID   = 25732
ELEMENT_SET_NO = 999
REV_AT_EPOCH   = 38681
BSTAR          = .47168E-4
MEAN_MOTION_DOT = .55E-6
MEAN_MOTION_DDOT = 0

CCSDS_OMM_VERS = 2.0
CREATION_DATE  = 
ORIGINATOR     = 

OBJECT_NAME    = OKEAN-O
OBJECT_ID      = 1999-039A
CENTER_NAME    = EARTH
REF_FRAME      = TEME
TIME_SYSTEM    = UTC
MEAN_ELEMENT_THEORY = SGP/SGP4

EPOCH          = 2026-02-28T02:54:36.012960
MEAN_MOTION    = 14.80317730
ECCENTRICITY   = .0001551
INCLINATION    = 97.9464
RA_OF_ASC_NODE = 119.1091
ARG_OF_PERICENTER = 73.1368
MEAN_ANOMALY   = 287.0014

EPHEMERIS_TYPE = 0
CLASSIFICATION_TYPE = U
NORAD_CAT_ID   = 25860
ELEMENT_SET_NO = 999
REV_AT_EPOCH   = 43297
BSTAR          = .10221E-3
MEAN_MOTION_DOT = .727E-5
MEAN_MOTION_DDOT = 0

CCSDS_OMM_VERS = 2.0
CREATION_DATE  = 
ORIGINATOR     = 

OBJECT_NAME    = SL-16 R/B
OBJECT_ID      = 1999-039B
CENTER_NAME    = EARTH
REF_FRAME      = TEME
TIME_SYSTEM    = UTC
MEAN_ELEMENT_THEORY = SGP/SGP4

EPOCH          = 2026-02-28T02:38:35.869632
MEAN_MOTION    = 14.81715939
ECCENTRICITY   = .0013457
INCLINATION    = 97.9987
RA_OF_ASC_NODE = 118.2201
ARG_OF_PERICENTER = 290.4308
MEAN_ANOMALY   = 69.5460

EPHEMERIS_TYPE = 0
CLASSIFICATION_TYPE = U
NORAD_CAT_ID   = 25861
ELEMENT_SET_NO = 999
REV_AT_EPOCH   = 43544
BSTAR          = .82854E-4
MEAN_MOTION_DOT = .599E-5
MEAN_MOTION_DDOT = 0

CCSDS_OMM_VERS = 2.0
CREATION_DATE  = 
ORIGINATOR     = 

OBJECT_NAME    = DELTA 2 R/B
OBJECT_ID      = 1999-041E
CENTER_NAME    = EARTH
REF_FRAME      = TEME
TIME_SYSTEM    = UTC
MEAN_ELEMENT_THEORY = SGP/SGP4

EPOCH          = 2026-02-28T04:01:44.749056
MEAN_MOTION    = 14.11800944
ECCENTRICITY   = .0502326
INCLINATION    = 51.7654
RA_OF_ASC_NODE = 339.3090
ARG_OF_PERICENTER = 320.3200
MEAN_ANOMALY   = 36.1964

EPHEMERIS_TYPE = 0
CLASSIFICATION_TYPE = U
NORAD_CAT_ID   = 25876
ELEMENT_SET_NO = 999
REV_AT_EPOCH   = 36168
BSTAR          = .34142E-3
MEAN_MOTION_DOT = .1889E-4
MEAN_MOTION_DDOT = 0

CCSDS_OMM_VERS = 2.0
CREATION_DATE  = 
ORIGINATOR     = 

OBJECT_NAME    = HELIOS 1B
OBJECT_ID      = 1999-064A
CENTER_NAME    = EARTH
REF_FRAME      = TEME
TIME_SYSTEM    = UTC
MEAN_ELEMENT_THEORY = SGP/SGP4

EPOCH          = 2026-02-28T03:54:38.359008
MEAN_MOTION    = 14.87651263
ECCENTRICITY   = .0002481
INCLINATION    = 98.1707
RA_OF_ASC_NODE = 321.1259
ARG_OF_PERICENTER = 88.2039
MEAN_ANOMALY   = 271.9460

EPHEMERIS_TYPE = 0
CLASSIFICATION_TYPE = U
NORAD_CAT_ID   = 25977
ELEMENT_SET_NO = 999
REV_AT_EPOCH   = 68384
BSTAR          = .20592E-3
MEAN_MOTION_DOT = .1815E-4
MEAN_MOTION_DDOT = 0

CCSDS_OMM_VERS = 2.0
CREATION_DATE  = 
ORIGINATOR     = 

OBJECT_NAME    = TERRA
OBJECT_ID      = 1999-068A
CENTER_NAME    = EARTH
REF_FRAME      = TEME
TIME_SYSTEM    = UTC
MEAN_ELEMENT_THEORY = SGP/SGP4

EPOCH          = 2026-02-28T02:53:50.734176
MEAN_MOTION    = 14.61002754
ECCENTRICITY   = .0002049
INCLINATION    = 97.9614
RA_OF_ASC_NODE = 112.9201
ARG_OF_PERICENTER = 175.6167
MEAN_ANOMALY   = 212.0564

EPHEMERIS_TYPE = 0
CLASSIFICATION_TYPE = U
NORAD_CAT_ID   = 25994
ELEMENT_SET_NO = 999
REV_AT_EPOCH   = 39368
BSTAR          = .10189E-3
MEAN_MOTION_DOT = .455E-5
MEAN_MOTION_DDOT = 0

CCSDS_OMM_VERS = 2.0
CREATION_DATE  = 
ORIGINATOR     = 

OBJECT_NAME    = SL-16 R/B
OBJECT_ID      = 2000-006B
CENTER_NAME    = EARTH
REF_FRAME      = TEME
TIME_SYSTEM    = UTC
MEAN_ELEMENT_THEORY = SGP/SGP4

EPOCH          = 2026-02-28T02:54:38.719008
MEAN_MOTION    = 14.15822254
ECCENTRICITY   = .0017394
INCLINATION    = 71.0015
RA_OF_ASC_NODE = 117.9578
ARG_OF_PERICENTER = 203.2735
MEAN_ANOMALY   = 156.7603

EPHEMERIS_TYPE = 0
CLASSIFICATION_TYPE = U
NORAD_CAT_ID   = 26070
ELEMENT_SET_NO = 999
REV_AT_EPOCH   = 34720
BSTAR          = .17534E-3
MEAN_MOTION_DOT = .297E-5
MEAN_MOTION_DDOT = 0

CCSDS_OMM_VERS = 2.0
CREATION_DATE  = 
ORIGINATOR     = 

OBJECT_NAME    = TITAN 4B R/B
OBJECT_ID      = 2000-047B
CENTER_NAME    = EARTH
REF_FRAME      = TEME
TIME_SYSTEM    = UTC
MEAN_ELEMENT_THEORY = SGP/SGP4

EPOCH          = 2026-02-28T03:43:16.745952
MEAN_MOTION    = 15.09455410
ECCENTRICITY   = .0037797
INCLINATION    = 67.9882
RA_OF_ASC_NODE = 67.3201
ARG_OF_PERICENTER = 46.8431
MEAN_ANOMALY   = 313.5867

EPHEMERIS_TYPE = 0
CLASSIFICATION_TYPE = U
NORAD_CAT_ID   = 26474
ELEMENT_SET_NO = 999
REV_AT_EPOCH   = 39147
BSTAR          = .25433E-3
MEAN_MOTION_DOT = .4014E-4
MEAN_MOTION_DDOT = 0

CCSDS_OMM_VERS = 2.0
CREATION_DATE  = 
ORIGINATOR     = 

OBJECT_NAME    = ENVISAT
OBJECT_ID      = 2002-009A
CENTER_NAME    = EARTH
REF_FRAME      = TEME
TIME_SYSTEM    = UTC
MEAN_ELEMENT_THEORY = SGP/SGP4

EPOCH          = 2026-02-27T20:51:59.730048
MEAN_MOTION    = 14.39032627
ECCENTRICITY   = .00013681
INCLINATION    = 98.3709
RA_OF_ASC_NODE = 12.7016
ARG_OF_PERICENTER = 85.1746
MEAN_ANOMALY   = 293.5287

EPHEMERIS_TYPE = 0
CLASSIFICATION_TYPE = U
NORAD_CAT_ID   = 27386
ELEMENT_SET_NO = 999
REV_AT_EPOCH   = 25776
BSTAR          = .55240777E-4
MEAN_MOTION_DOT = .128E-5
MEAN_MOTION_DDOT = 0

