SL-16 R/B               
1 25400U 98043G   26058.83855921  .00000065  00000+0  46148-4 0  9994
2 25400  98.8237  12.1333 0010662  47.3255 312.8822 14.26047176437585
SL-16 R/B               
1 25407U 98045B   26059.10834101 -.00000233  00000+0 -93441-4 0  9998
2 25407  71.0109 201.7215 0006210  23.0622 337.0779 14.16190478425749
ISS (ZARYA)             
1 25544U 98067A   26058.89712272  .00011820  00000+0  22726-3 0  9992
2 25544  51.6325 120.7666 0008322 140.4026 219.7571 15.48349372554815
CZ-4B R/B               
1 25732U 99025C   26059.14246818  .00000055  00000+0  47168-4 0  9999
2 25732  98.6647 103.6494 0037279  14.1560  52.4140 14.18263177386815
OKEAN-O                 
1 25860U 99039A   26059.12125015  .00000727  00000+0  10221-3 0  9994
2 25860  97.9464 119.1091 0001551  73.1368 287.0014 14.80317730432975
SL-16 R/B               
1 25861U 99039B   26059.11013738  .00000599  00000+0  82854-4 0  9991
2 25861  97.9987 118.2201 0013457 290.4308  69.5460 14.81715939435442
DELTA 2 R/B             
1 25876U 99041E   26059.16787904  .00001889  00000+0  34142-3 0  9997
2 25876  51.7654 339.3090 0502326 320.3200  36.1964 14.11800944361688
HELIOS 1B               
1 25977U 99064A   26059.16294397  .00001815  00000+0  20592-3 0  9996
2 25977  98.1707 321.1259 0002481  88.2039 271.9460 14.87651263683843
TERRA                   
1 25994U 99068A   26059.12072609  .00000455  00000+0  10189-3 0  9995
2 25994  97.9614 112.9201 0002049 175.6167 212.0564 14.61002754393680
SL-16 R/B               
1 26070U 00006B   26059.12128147  .00000297  00000+0  17534-3 0  9999
2 26070  71.0015 117.9578 0017394 203.2735 156.7603 14.15822254347203
TITAN 4B R/B            
1 26474U 00047B   26059.15505493  .00004014  00000+0  25433-3 0  9996
2 26474  67.9882  67.3201 0037797  46.8431 313.5867 15.09455410391474
ENVISAT                 
1 27386U 02009A   26058.86944132  .00000128  00000+0  55241-4 0  9996
2 27386  98.3709  12.7016 0001368  85.1746 293.5287 14.39032627257760
